0 CBERS 1 DEB
1 34207U 99057RJ  13281.16634942  .00007235  00000-0  19280-2 0  4428
2 34207 098.2954 260.8300 0026373 014.0178 346.1741 14.48541632299112
0 CBERS 1 DEB
1 34207U 99057RJ  13282.40969515  .00011772  00000-0  31255-2 0  4431
2 34207 098.2955 262.0515 0026236 010.4381 349.7351 14.48575014299295
0 CBERS 1 DEB
1 34207U 99057RJ  13283.16950198  .00010525  00000-0  27958-2 0  4443
2 34207 098.2955 262.7982 0026169 008.1350 352.0263 14.48583724299404
0 CBERS 1 DEB
1 34207U 99057RJ  13283.72209458  .00013829  00000-0  36662-2 0  4454
2 34207 098.2876 263.3378 0025218 007.7258 352.4809 14.48588548299485
0 CBERS 1 DEB
1 34207U 99057RJ  13287.17565225  .00009414  00000-0  24992-2 0  4463
2 34207 098.2947 266.7340 0025712 356.4768 003.6240 14.48648147299980
0 CBERS 1 DEB
1 34207U 99057RJ  13289.17864974  .00012659  00000-0  33520-2 0  4471
2 34207 098.2949 268.7020 0025504 350.5420 009.5290 14.48694153300271
0 CBERS 1 DEB
1 34207U 99057RJ  13290.14559238  .00012544  00000-0  33205-2 0  4488
2 34207 098.2951 269.6518 0025400 347.7420 012.3153 14.48713450300417
0 CBERS 1 DEB
1 34207U 99057RJ  13292.70101869  .00011846  00000-0  31336-2 0  4493
2 34207 098.2960 272.1623 0025087 340.0935 019.9278 14.48766772300787
0 CBERS 1 DEB
1 34207U 99057RJ  13294.91104312  .00012531  00000-0  33109-2 0  4508
2 34207 098.2967 274.3340 0024831 333.3927 026.5991 14.48810494301100
